STARLINK-2583
1 18439C 21040M   21326.18334784 -.00002354  00000-0 -15768-3 0  3267
2 18439  53.0553  22.9272 0001451  69.9850 319.7162 15.06403187    18
